STARLINK AB             
1 56473U 23064AB  23139.25001157 -.00926966  00000+0 -42308-2 0  9997
2 56473  69.9994 221.5962 0005291 187.0171 290.3646 15.85656868  1719
STARLINK AC             
1 56474U 23064AC  23139.25001157 -.00927086  00000+0 -42467-2 0  9998
2 56474  69.9998 221.5990 0005261 186.9090 288.4270 15.85583209  1719
STARLINK AD             
1 56475U 23064AD  23138.91667824 -.00905983  00000+0 -39922-2 0  9994
2 56475  69.9991 222.5543 0006056 180.9216 194.7312 15.86314650  1309
STARLINK AE             
1 56476U 23064AE  23139.25001157 -.00926963  00000+0 -42363-2 0  9998
2 56476  69.9996 221.5972 0004900 189.8377 286.9435 15.85636443  1713
STARLINK AF             
1 56477U 23064AF  23139.25001157 -.00927071  00000+0 -42251-2 0  9996
2 56477  69.9990 221.5946 0004482 195.0625 283.4629 15.85699968  1717
STARLINK AG             
1 56478U 23064AG  23138.91667824 -.00917215  00000+0 -40511-2 0  9994
2 56478  69.9988 222.5549 0005728 183.8572 191.2553 15.86298867  1654
STARLINK AH             
1 56479U 23064AH  23139.25001157 -.00922455  00000+0 -41958-2 0  9992
2 56479  69.9991 221.5927 0004028 202.9177 276.7891 15.85736259  1716
STARLINK AJ             
1 56480U 23064AJ  23138.91667824 -.00916916  00000+0 -40553-2 0  9990
2 56480  69.9989 222.5557 0005282 187.3568 187.1931 15.86277899  1652
STARLINK AK             
1 56481U 23064AK  23138.91667824 -.00916909  00000+0 -40423-2 0  9999
2 56481  69.9989 222.5526 0004720 193.2343 183.2463 15.86352268  1653
STARLINK AL             
1 56482U 23064AL  23138.91667824 -.00916956  00000+0 -40484-2 0  9999
2 56482  69.9985 222.5545 0005529 185.2229 190.1611 15.86309503  1301
STARLINK AM             
1 56483U 23064AM  23139.25001157 -.00923296  00000+0 -41980-2 0  9996
2 56483  69.9989 221.5922 0003949 206.0484 273.9413 15.85747311  1710
STARLINK AN             
1 56484U 23064AN  23138.91667824 -.00916937  00000+0 -40444-2 0  9996
2 56484  69.9992 222.5535 0004776 192.0338 184.1773 15.86341490  1651
STARLINK AP             
1 56485U 23064AP  23139.25001157 -.00921666  00000+0 -41864-2 0  9998
2 56485  69.9986 221.5918 0004416 196.1823 284.1000 15.85757155  1713
STARLINK AQ             
1 56486U 23064AQ  23138.91667824 -.00916732  00000+0 -40374-2 0  9993
2 56486  69.9988 222.5526 0005366 186.3352 190.4326 15.86362257  1654
STARLINK AR             
1 56487U 23064AR  23138.91667824 -.00916191  00000+0 -40246-2 0  9991
2 56487  69.9979 222.5502 0004664 192.9308 185.5042 15.86424946  1657
STARLINK AS             
1 56488U 23064AS  23139.25001157 -.00922052  00000+0 -41872-2 0  9990
2 56488  69.9995 221.5920 0004080 202.3122 278.2678 15.85767707  1717
STARLINK AT             
1 56489U 23064AT  23139.25001157 -.00922795  00000+0 -41852-2 0  9993
2 56489  69.9985 221.5902 0003825 210.2676 271.1747 15.85799419  1719
STARLINK AU             
1 56490U 23064AU  23138.91667824 -.00916745  00000+0 -40271-2 0  9998
2 56490  69.9986 222.5508 0005352 186.7932 191.3588 15.86414872  1651
STARLINK AV             
1 56491U 23064AV  23138.91667824 -.00916401  00000+0 -40192-2 0  9990
2 56491  69.9981 222.5492 0005363 185.7160 193.2631 15.86446245  1652
STARLINK AW             
1 56492U 23064AW  23138.91667824 -.00916272  00000+0 -40158-2 0  9999
2 56492  69.9978 222.5491 0004976 189.6850 189.8654 15.86466625  1656
STARLINK AX             
1 56493U 23064AX  23139.25001157 -.00922036  00000+0 -41648-2 0  9999
2 56493  69.9989 221.5873 0003631 211.8672 271.8651 15.85883696  1715
STARLINK AY             
1 56494U 23064AY  23138.91667824 -.00905839  00000+0 -39666-2 0  9990
2 56494  69.9986 222.5500 0005537 183.8666 195.3930 15.86451205  1650
STARLINK AZ             
1 56495U 23064AZ  23139.25001157 -.00927576  00000+0 -41937-2 0  9996
2 56495  69.9988 221.5890 0004964 189.6230 293.2498 15.85857873  1712
STARLINK BA             
1 56496U 23064BA  23138.91667824 -.00905698  00000+0 -39581-2 0  9991
2 56496  69.9989 222.5488 0005413 184.9229 195.4307 15.86493483  1653
STARLINK BB             
1 56497U 23064BB  23139.25001157 -.00927441  00000+0 -41861-2 0  9995
2 56497  69.9987 221.5882 0005723 183.8102 299.6266 15.85879082  1711
STARLINK BC             
1 56498U 23064BC  23139.25001157 -.00926846  00000+0 -41928-2 0  9998
2 56498  69.9987 221.5896 0004829 191.0133 291.5793 15.85846552  1710
FALCON 9 DEB            
1 56499U 23064BD  23138.92216775  .01167657  40746-5  81557-3 0  9992
2 56499  69.9862 222.1499 0052811 151.5830 208.8286 16.12738229  1303
FALCON 9 DEB            
1 56500U 23064BE  23138.91774815  .01274972  40919-5  84495-3 0  9993
2 56500  69.9870 222.1349 0045408 152.9950 207.3646 16.14268404  1300
FALCON 9 DEB            
1 56501U 23064BF  23138.91122308  .01511269  41060-5  87207-3 0  9993
2 56501  69.9894 222.1148 0042772 147.5513 212.8351 16.16345387  1302
FALCON 9 DEB            
1 56502U 23064BG  23138.91230426  .01341578  40983-5  81105-3 0  9993
2 56502  69.9905 222.1205 0045491 150.9914 209.3848 16.15457160  1308
BEIDOU-3 G4             
1 56564U 23066A   23137.24578858 -.00000509  30244-6  00000+0 0  9999
2 56564  28.4164 274.0109 7303607 179.7725  92.0607  2.27944191    03
CZ-3B R/B               
1 56565U 23066B   23137.49632333 -.00000581  40514-6  00000+0 0  9997
2 56565  28.4044 274.0004 7229893 179.2277 311.6883  2.38600909    11
